{
 "type": "FeatureCollection",
 "name": "fukushima_polygons",
 "properties": {
  "note": "動作確認用サンプル筆ポリゴン（相馬・南相馬）。実データは resources/data-guide.md 参照。"
 },
 "features": [
  {
   "type": "Feature",
   "properties": {
    "field_id": "field_001"
   },
   "geometry": {
    "type": "Polygon",
    "coordinates": [
     [
      [
       140.948,
       37.787
      ],
      [
       140.958,
       37.787
      ],
      [
       140.958,
       37.797
      ],
      [
       140.948,
       37.797
      ],
      [
       140.948,
       37.787
      ]
     ]
    ]
   }
  },
  {
   "type": "Feature",
   "properties": {
    "field_id": "field_002"
   },
   "geometry": {
    "type": "Polygon",
    "coordinates": [
     [
      [
       140.96,
       37.795
      ],
      [
       140.968,
       37.795
      ],
      [
       140.968,
       37.803
      ],
      [
       140.96,
       37.803
      ],
      [
       140.96,
       37.795
      ]
     ]
    ]
   }
  },
  {
   "type": "Feature",
   "properties": {
    "field_id": "field_003"
   },
   "geometry": {
    "type": "Polygon",
    "coordinates": [
     [
      [
       140.933,
       37.77
      ],
      [
       140.943,
       37.77
      ],
      [
       140.943,
       37.78
      ],
      [
       140.933,
       37.78
      ],
      [
       140.933,
       37.77
      ]
     ]
    ]
   }
  },
  {
   "type": "Feature",
   "properties": {
    "field_id": "field_004"
   },
   "geometry": {
    "type": "Polygon",
    "coordinates": [
     [
      [
       140.971,
       37.806
      ],
      [
       140.981,
       37.806
      ],
      [
       140.981,
       37.816
      ],
      [
       140.971,
       37.816
      ],
      [
       140.971,
       37.806
      ]
     ]
    ]
   }
  },
  {
   "type": "Feature",
   "properties": {
    "field_id": "field_005"
   },
   "geometry": {
    "type": "Polygon",
    "coordinates": [
     [
      [
       140.942,
       37.799
      ],
      [
       140.95,
       37.799
      ],
      [
       140.95,
       37.807
      ],
      [
       140.942,
       37.807
      ],
      [
       140.942,
       37.799
      ]
     ]
    ]
   }
  },
  {
   "type": "Feature",
   "properties": {
    "field_id": "field_006"
   },
   "geometry": {
    "type": "Polygon",
    "coordinates": [
     [
      [
       140.955,
       37.772
      ],
      [
       140.963,
       37.772
      ],
      [
       140.963,
       37.78
      ],
      [
       140.955,
       37.78
      ],
      [
       140.955,
       37.772
      ]
     ]
    ]
   }
  },
  {
   "type": "Feature",
   "properties": {
    "field_id": "field_007"
   },
   "geometry": {
    "type": "Polygon",
    "coordinates": [
     [
      [
       141.0,
       37.636
      ],
      [
       141.01,
       37.636
      ],
      [
       141.01,
       37.644
      ],
      [
       141.0,
       37.644
      ],
      [
       141.0,
       37.636
      ]
     ]
    ]
   }
  },
  {
   "type": "Feature",
   "properties": {
    "field_id": "field_008"
   },
   "geometry": {
    "type": "Polygon",
    "coordinates": [
     [
      [
       140.996,
       37.606
      ],
      [
       141.006,
       37.606
      ],
      [
       141.006,
       37.614
      ],
      [
       140.996,
       37.614
      ],
      [
       140.996,
       37.606
      ]
     ]
    ]
   }
  },
  {
   "type": "Feature",
   "properties": {
    "field_id": "field_009"
   },
   "geometry": {
    "type": "Polygon",
    "coordinates": [
     [
      [
       141.014,
       37.65
      ],
      [
       141.024,
       37.65
      ],
      [
       141.024,
       37.658
      ],
      [
       141.014,
       37.658
      ],
      [
       141.014,
       37.65
      ]
     ]
    ]
   }
  },
  {
   "type": "Feature",
   "properties": {
    "field_id": "field_010"
   },
   "geometry": {
    "type": "Polygon",
    "coordinates": [
     [
      [
       141.002,
       37.618
      ],
      [
       141.01,
       37.618
      ],
      [
       141.01,
       37.626
      ],
      [
       141.002,
       37.626
      ],
      [
       141.002,
       37.618
      ]
     ]
    ]
   }
  },
  {
   "type": "Feature",
   "properties": {
    "field_id": "field_011"
   },
   "geometry": {
    "type": "Polygon",
    "coordinates": [
     [
      [
       141.02,
       37.608
      ],
      [
       141.028,
       37.608
      ],
      [
       141.028,
       37.616
      ],
      [
       141.02,
       37.616
      ],
      [
       141.02,
       37.608
      ]
     ]
    ]
   }
  },
  {
   "type": "Feature",
   "properties": {
    "field_id": "field_012"
   },
   "geometry": {
    "type": "Polygon",
    "coordinates": [
     [
      [
       141.008,
       37.64
      ],
      [
       141.016,
       37.64
      ],
      [
       141.016,
       37.648
      ],
      [
       141.008,
       37.648
      ],
      [
       141.008,
       37.64
      ]
     ]
    ]
   }
  }
 ]
}